start=new Date('2023-02-10T00:00:00.000Z').valueOf();
sats=[{"NORAD_CAT_ID":"46152","EPHEMERIS_TYPE":"0","REV_AT_EPOCH":"13733","MEAN_ANOMALY":"267.1360","RCS_SIZE":"LARGE","BSTAR":"0.00106920000000","ELEMENT_SET_NO":"999","EPOCH":"2023-02-09T19:50:55.006656","ARG_OF_PERICENTER":"92.9742","CENTER_NAME":"EARTH","PERIAPSIS":"546.534","MEAN_MOTION_DDOT":"0.0000000000000","REF_FRAME":"TEME","OBJECT_ID":"2020-057AM","MEAN_MOTION_DOT":"0.00015680","TIME_SYSTEM":"UTC","TLE_LINE2":"2 46152  53.0541 321.8252 0000981  92.9742 267.1360 15.06399905137331","SEMIMAJOR_AXIS":"6925.349","COUNTRY_CODE":"US","FILE":"3783096","MEAN_ELEMENT_THEORY":"SGP4","ECCENTRICITY":"0.00009810","RA_OF_ASC_NODE":"321.8252","LAUNCH_DATE":"2020-08-18","DECAY_DATE":null,"MEAN_MOTION":"15.06399905","TLE_LINE1":"1 46152U 20057AM  23040.82702554  .00015680  00000-0  10692-2 0  9994","APOAPSIS":"547.893","CLASSIFICATION_TYPE":"U","OBJECT_NAME":"STARLINK-1634","SITE":"AFETR","PERIOD":"95.592","INCLINATION":"53.0541","OBJECT_TYPE":"PAYLOAD","GP_ID":"224933148"},{"CENTER_NAME":"EARTH","PERIAPSIS":"546.461","REF_FRAME":"TEME","MEAN_MOTION_DDOT":"0.0000000000000","OBJECT_ID":"2020-057AN","MEAN_MOTION_DOT":"0.00010720","TIME_SYSTEM":"UTC","TLE_LINE2":"2 46153  53.0556 301.6719 0001099 107.8192 252.2917 15.06397189136950","SEMIMAJOR_AXIS":"6925.357","COUNTRY_CODE":"US","FILE":"3783241","MEAN_ELEMENT_THEORY":"SGP4","NORAD_CAT_ID":"46153","EPHEMERIS_TYPE":"0","REV_AT_EPOCH":"13695","MEAN_ANOMALY":"252.2917","RCS_SIZE":"LARGE","BSTAR":"0.00073750000000","ELEMENT_SET_NO":"999","EPOCH":"2023-02-09T20:42:41.865984","ARG_OF_PERICENTER":"107.8192","CLASSIFICATION_TYPE":"U","OBJECT_NAME":"STARLINK-1636","SITE":"AFETR","INCLINATION":"53.0556","PERIOD":"95.592","OBJECT_TYPE":"PAYLOAD","GP_ID":"224955333","ECCENTRICITY":"0.00010990","RA_OF_ASC_NODE":"301.6719","LAUNCH_DATE":"2020-08-18","DECAY_DATE":null,"MEAN_MOTION":"15.06397189","TLE_LINE1":"1 46153U 20057AN  23040.86298456  .00010720  00000-0  73750-3 0  9995","APOAPSIS":"547.983"},{"SITE":"AFETR","PERIOD":"95.591","INCLINATION":"53.0550","OBJECT_NAME":"STARLINK-1642","CLASSIFICATION_TYPE":"U","OBJECT_TYPE":"PAYLOAD","GP_ID":"224907380","ECCENTRICITY":"0.00011720","RA_OF_ASC_NODE":"314.9034","LAUNCH_DATE":"2020-08-18","DECAY_DATE":null,"MEAN_MOTION":"15.06411603","TLE_LINE1":"1 46154U 20057AP  23040.14330478  .00036720  00000-0  24705-2 0  9991","APOAPSIS":"547.990","CENTER_NAME":"EARTH","PERIAPSIS":"546.366","MEAN_MOTION_DDOT":"0.0000000000000","REF_FRAME":"TEME","OBJECT_ID":"2020-057AP","MEAN_MOTION_DOT":"0.00036720","TLE_LINE2":"2 46154  53.0550 314.9034 0001172  92.4350 267.6773 15.06411603136711","TIME_SYSTEM":"UTC","MEAN_ELEMENT_THEORY":"SGP4","FILE":"3782313","SEMIMAJOR_AXIS":"6925.313","COUNTRY_CODE":"US","MEAN_ANOMALY":"267.6773","EPHEMERIS_TYPE":"0","NORAD_CAT_ID":"46154","REV_AT_EPOCH":"13671","ELEMENT_SET_NO":"999","RCS_SIZE":"LARGE","BSTAR":"0.00247050000000","EPOCH":"2023-02-09T03:26:21.532992","ARG_OF_PERICENTER":"92.4350"},{"DECAY_DATE":null,"MEAN_MOTION":"15.06398390","TLE_LINE1":"1 46155U 20057AQ  23040.83165636  .00010291  00000-0  70876-3 0  9996","APOAPSIS":"547.987","RA_OF_ASC_NODE":"281.8249","ECCENTRICITY":"0.00011100","LAUNCH_DATE":"2020-08-18","OBJECT_TYPE":"PAYLOAD","GP_ID":"224933179","SITE":"AFETR","INCLINATION":"53.0518","PERIOD":"95.592","OBJECT_NAME":"STARLINK-1667","CLASSIFICATION_TYPE":"U","EPOCH":"2023-02-09T19:57:35.109504","ARG_OF_PERICENTER":"99.5607","MEAN_ANOMALY":"260.5507","EPHEMERIS_TYPE":"0","NORAD_CAT_ID":"46155","REV_AT_EPOCH":"13789","RCS_SIZE":"LARGE","BSTAR":"0.00070876000000","ELEMENT_SET_NO":"999","MEAN_MOTION_DOT":"0.00010291","TIME_SYSTEM":"UTC","TLE_LINE2":"2 46155  53.0518 281.8249 0001110  99.5607 260.5507 15.06398390137895","MEAN_ELEMENT_THEORY":"SGP4","FILE":"3783098","SEMIMAJOR_AXIS":"6925.353","COUNTRY_CODE":"US","CENTER_NAME":"EARTH","PERIAPSIS":"546.450","MEAN_MOTION_DDOT":"0.0000000000000","REF_FRAME":"TEME","OBJECT_ID":"2020-057AQ"},{"TLE_LINE1":"1 46156U 20057AR  23040.15896859  .00020527  00000-0  13926-2 0  9995","APOAPSIS":"548.011","DECAY_DATE":null,"MEAN_MOTION":"15.06408356","LAUNCH_DATE":"2020-08-18","RA_OF_ASC_NODE":"304.8380","ECCENTRICITY":"0.00011890","OBJECT_TYPE":"PAYLOAD","GP_ID":"224908879","CLASSIFICATION_TYPE":"U","OBJECT_NAME":"STARLINK-1545","SITE":"AFETR","INCLINATION":"53.0536","PERIOD":"95.592","ARG_OF_PERICENTER":"95.4212","EPOCH":"2023-02-09T03:48:54.886176","ELEMENT_SET_NO":"999","RCS_SIZE":"LARGE","BSTAR":"0.00139260000000","EPHEMERIS_TYPE":"0","NORAD_CAT_ID":"46156","REV_AT_EPOCH":"13810","MEAN_ANOMALY":"264.6912","SEMIMAJOR_AXIS":"6925.323","COUNTRY_CODE":"US","FILE":"3782313","MEAN_ELEMENT_THEORY":"SGP4","MEAN_MOTION_DOT":"0.00020527","TIME_SYSTEM":"UTC","TLE_LINE2":"2 46156  53.0536 304.8380 0001189  95.4212 264.6912 15.06408356138105","MEAN_MOTION_DDOT":"0.0000000000000","REF_FRAME":"TEME","OBJECT_ID":"2020-057AR","CENTER_NAME":"EARTH","PERIAPSIS":"546.365"},{"OBJECT_TYPE":"PAYLOAD","GP_ID":"224954834","SITE":"AFETR","PERIOD":"95.593","INCLINATION":"53.0534","CLASSIFICATION_TYPE":"U","OBJECT_NAME":"STARLINK-1587","TLE_LINE1":"1 46157U 20057AS  23040.94223231  .00016350  00000-0  11143-2 0  9999","APOAPSIS":"548.057","DECAY_DATE":null,"MEAN_MOTION":"15.06388653","LAUNCH_DATE":"2020-08-18","RA_OF_ASC_NODE":"281.3226","ECCENTRICITY":"0.00011680","FILE":"3783241","MEAN_ELEMENT_THEORY":"SGP4","SEMIMAJOR_AXIS":"6925.383","COUNTRY_CODE":"US","MEAN_MOTION_DOT":"0.00016350","TIME_SYSTEM":"UTC","TLE_LINE2":"2 46157  53.0534 281.3226 0001168  75.6048 284.5071 15.06388653137255","MEAN_MOTION_DDOT":"0.0000000000000","REF_FRAME":"TEME","OBJECT_ID":"2020-057AS","CENTER_NAME":"EARTH","PERIAPSIS":"546.439","ARG_OF_PERICENTER":"75.6048","EPOCH":"2023-02-09T22:36:48.871584","RCS_SIZE":"LARGE","ELEMENT_SET_NO":"999","BSTAR":"0.00111430000000","MEAN_ANOMALY":"284.5071","EPHEMERIS_TYPE":"0","NORAD_CAT_ID":"46157","REV_AT_EPOCH":"13725"},{"TLE_LINE2":"2 46158  53.0532 281.3366 0001646  85.3560 274.7617 15.06402651137912","TIME_SYSTEM":"UTC","MEAN_MOTION_DOT":"0.00020281","MEAN_ELEMENT_THEORY":"SGP4","FILE":"3783070","COUNTRY_CODE":"US","SEMIMAJOR_AXIS":"6925.340","PERIAPSIS":"546.066","CENTER_NAME":"EARTH","OBJECT_ID":"2020-057AT","REF_FRAME":"TEME","MEAN_MOTION_DDOT":"0.0000000000000","EPOCH":"2023-02-09T22:31:31.030176","ARG_OF_PERICENTER":"85.3560","MEAN_ANOMALY":"274.7617","REV_AT_EPOCH":"13791","EPHEMERIS_TYPE":"0","NORAD_CAT_ID":"46158","ELEMENT_SET_NO":"999","RCS_SIZE":"LARGE","BSTAR":"0.00137640000000","GP_ID":"224932796","OBJECT_TYPE":"PAYLOAD","INCLINATION":"53.0532","PERIOD":"95.592","SITE":"AFETR","OBJECT_NAME":"STARLINK-1589","CLASSIFICATION_TYPE":"U","MEAN_MOTION":"15.06402651","DECAY_DATE":null,"APOAPSIS":"548.345","TLE_LINE1":"1 46158U 20057AT  23040.93855359  .00020281  00000-0  13764-2 0  9990","RA_OF_ASC_NODE":"281.3366","ECCENTRICITY":"0.00016460","LAUNCH_DATE":"2020-08-18"},{"BSTAR":"0.00028913000000","RCS_SIZE":"LARGE","ELEMENT_SET_NO":"999","REV_AT_EPOCH":"13793","NORAD_CAT_ID":"46159","EPHEMERIS_TYPE":"0","MEAN_ANOMALY":"259.2403","ARG_OF_PERICENTER":"100.8690","EPOCH":"2023-02-09T20:18:49.123296","OBJECT_ID":"2020-057AU","MEAN_MOTION_DDOT":"0.0000000000000","REF_FRAME":"TEME","PERIAPSIS":"546.584","CENTER_NAME":"EARTH","COUNTRY_CODE":"US","SEMIMAJOR_AXIS":"6925.363","FILE":"3783241","MEAN_ELEMENT_THEORY":"SGP4","TLE_LINE2":"2 46159  53.0539 321.7526 0000930 100.8690 259.2403 15.06395159137936","TIME_SYSTEM":"UTC","MEAN_MOTION_DOT":"0.00004027","LAUNCH_DATE":"2020-08-18","ECCENTRICITY":"0.00009300","RA_OF_ASC_NODE":"321.7526","APOAPSIS":"547.872","TLE_LINE1":"1 46159U 20057AU  23040.84640189  .00004027  00000-0  28913-3 0  9997","MEAN_MOTION":"15.06395159","DECAY_DATE":null,"CLASSIFICATION_TYPE":"U","OBJECT_NAME":"STARLINK-1595","INCLINATION":"53.0539","PERIOD":"95.592","SITE":"AFETR","GP_ID":"224955826","OBJECT_TYPE":"PAYLOAD"},{"OBJECT_TYPE":"PAYLOAD","GP_ID":"224908382","SITE":"AFETR","INCLINATION":"53.0533","PERIOD":"95.592","CLASSIFICATION_TYPE":"U","OBJECT_NAME":"STARLINK-1598","TLE_LINE1":"1 46160U 20057AV  23040.10736778  .00025655  00000-0  17348-2 0  9997","APOAPSIS":"547.951","DECAY_DATE":null,"MEAN_MOTION":"15.06402871","LAUNCH_DATE":"2020-08-18","ECCENTRICITY":"0.00010770","RA_OF_ASC_NODE":"305.0727","MEAN_ELEMENT_THEORY":"SGP4","FILE":"3782313","SEMIMAJOR_AXIS":"6925.340","COUNTRY_CODE":"US","MEAN_MOTION_DOT":"0.00025655","TIME_SYSTEM":"UTC","TLE_LINE2":"2 46160  53.0533 305.0727 0001077  92.8592 267.2520 15.06402871138091","MEAN_MOTION_DDOT":"0.0000000000000","REF_FRAME":"TEME","OBJECT_ID":"2020-057AV","CENTER_NAME":"EARTH","PERIAPSIS":"546.459","ARG_OF_PERICENTER":"92.8592","EPOCH":"2023-02-09T02:34:36.576192","RCS_SIZE":"LARGE","BSTAR":"0.00173480000000","ELEMENT_SET_NO":"999","MEAN_ANOMALY":"267.2520","EPHEMERIS_TYPE":"0","NORAD_CAT_ID":"46160","REV_AT_EPOCH":"13809"},{"EPOCH":"2023-02-09T03:38:17.822688","ARG_OF_PERICENTER":"80.8753","REV_AT_EPOCH":"13810","EPHEMERIS_TYPE":"0","NORAD_CAT_ID":"46161","MEAN_ANOMALY":"279.2345","ELEMENT_SET_NO":"999","RCS_SIZE":"LARGE","BSTAR":"0.00241220000000","TIME_SYSTEM":"UTC","TLE_LINE2":"2 46161  53.0539 304.8697 0000966  80.8753 279.2345 15.06418750138106","MEAN_MOTION_DOT":"0.00035850","COUNTRY_CODE":"US","SEMIMAJOR_AXIS":"6925.291","FILE":"3782313","MEAN_ELEMENT_THEORY":"SGP4","PERIAPSIS":"546.487","CENTER_NAME":"EARTH","OBJECT_ID":"2020-057AW","MEAN_MOTION_DDOT":"0.0000000000000","REF_FRAME":"TEME","MEAN_MOTION":"15.06418750","DECAY_DATE":null,"APOAPSIS":"547.825","TLE_LINE1":"1 46161U 20057AW  23040.15159517  .00035850  00000-0  24122-2 0  9999","RA_OF_ASC_NODE":"304.8697","ECCENTRICITY":"0.00009660","LAUNCH_DATE":"2020-08-18","GP_ID":"224907131","OBJECT_TYPE":"PAYLOAD","CLASSIFICATION_TYPE":"U","OBJECT_NAME":"STARLINK-1600","INCLINATION":"53.0539","PERIOD":"95.591","SITE":"AFETR"}];
